{
  "norad_id": 51779,
  "name": "STARLINK-3611",
  "history": [
    {
      "epoch": "2026-03-28T17:39:29.224224Z",
      "apogee_km": 540.5838912466352,
      "perigee_km": 538.9093483376282,
      "latitude_deg": -5.339449128617063e-05,
      "longitude_deg": 162.64306370592354,
      "height_km": 540.6047276222549,
      "semi_major_axis_km": 6917.883619792131,
      "eccentricity": 0.00012103,
      "inclination_deg": 53.2168,
      "raan_deg": 253.6668,
      "arg_perigee_deg": 87.4158,
      "mean_anomaly_deg": 272.6972,
      "mean_motion_rev_day": 15.08838943
    },
    {
      "epoch": "2026-03-28T22:25:38.481888Z",
      "apogee_km": 540.5928856904402,
      "perigee_km": 538.8855538394018,
      "latitude_deg": -2.3895202801012793e-05,
      "longitude_deg": 90.01664630755039,
      "height_km": 540.5873086943881,
      "semi_major_axis_km": 6917.87621976492,
      "eccentricity": 0.0001234,
      "inclination_deg": 53.2168,
      "raan_deg": 252.7748,
      "arg_perigee_deg": 86.7945,
      "mean_anomaly_deg": 273.3188,
      "mean_motion_rev_day": 15.08841364
    }
  ]
}